STARLINK-34041          
1 63844U 25093J   26068.06784352  .00031096  00000+0  11342-2 0  9992
2 63844  42.9984  81.7090 0001366 276.6515  83.4181 15.27595100 47872
KUIPER-00226            
1 67785U 26030X   26068.62629313  .00046834  00000+0  15530-2 0  9998
2 67785  51.8814 220.1252 0017713  64.2781 296.0030 15.30655594  5078
